NORAD_CAT_ID,OBJECT_NAME,OBJECT_TYPE,EPOCH,MEAN_MOTION,ECCENTRICITY,INCLINATION,RA_OF_ASC_NODE,ARG_OF_PERICENTER,MEAN_ANOMALY,BSTAR,MEAN_MOTION_DOT,MEAN_MOTION_DDOT,TLE_LINE0,TLE_LINE1,TLE_LINE2,SEMIMAJOR_AXIS,PERIOD,APOGEE,PERIGEE,DECAYED
54784.0,STARLINK-5442,PAYLOAD,2023-01-06 22:00:00,15.61544645,0.0001125,53.2138,206.8398,92.8042,128.2265,-0.014519,-0.0114612,0.0,0 STARLINK-5442,1 54784U 22175AC  23006.91667824 -.01146120  00000-0 -14519-1 0  9997,2 54784  53.2138 206.8398 0001125  92.8042 128.2265 15.61544645  2898,6761.331999999999,92.216,383.957,382.436,0.0
54784.0,STARLINK-5442,PAYLOAD,2023-01-07 06:00:00,15.60716992,9.63e-05,53.2134,205.2182,92.6505,202.8061,-0.015786,-0.01200542,0.0,0 STARLINK-5442,1 54784U 22175AC  23007.25001157 -.01200542  00000-0 -15786-1 0  9992,2 54784  53.2134 205.2182 0000963  92.6505 202.8061 15.60716992  1302,6763.722,92.265,386.23800000000006,384.935,0.0
54784.0,STARLINK-5442,PAYLOAD,2023-01-07 14:00:01,15.59880274,8.89e-05,53.2134,203.5997,93.5874,275.2591,-0.016583,-0.01218904,0.0,0 STARLINK-5442,1 54784U 22175AC  23007.58334491 -.01218904  00000-0 -16583-1 0  9995,2 54784  53.2134 203.5997 0000889  93.5874 275.2591 15.59880274  3007,6766.14,92.315,388.607,387.404,0.0
54784.0,STARLINK-5442,PAYLOAD,2023-01-08 00:00:00,15.58770305,0.0001178,53.213,201.5819,69.88,119.2793,-0.016293,-0.01154677,0.0,0 STARLINK-5442,1 54784U 22175AC  23008.00001157 -.01154677  00000-0 -16293-1 0  9997,2 54784  53.2130 201.5819 0001178  69.8800 119.2793 15.58770305  1305,6769.352,92.381,392.014,390.419,0.0
54784.0,STARLINK-5442,PAYLOAD,2023-01-08 14:00:01,15.57314874,0.0001204,53.2133,198.7578,87.5658,135.2992,-0.018424,-0.01227187,0.0,0 STARLINK-5442,1 54784U 22175AC  23008.58334491 -.01227187  00000-0 -18424-1 0  9995,2 54784  53.2133 198.7578 0001204  87.5658 135.2992 15.57314874  3153,6773.569,92.467,396.249,394.61800000000005,0.0
54784.0,STARLINK-5442,PAYLOAD,2023-01-08 22:00:00,15.56406965,0.0001071,53.2136,197.1498,73.5075,218.6547,-0.01768,-0.01146685,0.0,0 STARLINK-5442,1 54784U 22175AC  23008.91667824 -.01146685  00000-0 -17680-1 0  9997,2 54784  53.2136 197.1498 0001071  73.5075 218.6547 15.56406965  1309,6776.203,92.521,398.794,397.342,0.0
54784.0,STARLINK-5442,PAYLOAD,2023-01-09 14:00:01,15.54748319,0.0001164,53.2141,193.9343,87.5205,340.0966,-0.020461,-0.01256817,0.0,0 STARLINK-5442,1 54784U 22175AC  23009.58334491 -.01256817  00000-0 -20461-1 0  9992,2 54784  53.2141 193.9343 0001164  87.5205 340.0966 15.54748319  1306,6781.021,92.619,403.676,402.097,0.0
54784.0,STARLINK-5442,PAYLOAD,2023-01-09 18:00:00,15.54272895,0.0001229,53.2139,193.1334,89.029,191.8315,-0.019642,-0.01173883,0.0,0 STARLINK-5442,1 54784U 22175AC  23009.75001157 -.01173883  00000-0 -19642-1 0  9991,2 54784  53.2139 193.1334 0001229  89.0290 191.8315 15.54272895  3345,6782.404,92.648,405.103,403.436,0.0
54784.0,STARLINK-5442,PAYLOAD,2023-01-09 22:00:00,15.53834102,0.0001271,53.2141,192.3324,73.3442,60.4818,-0.019388,-0.01143441,0.0,0 STARLINK-5442,1 54784U 22175AC  23009.91667824 -.01143441  00000-0 -19388-1 0  9992,2 54784  53.2141 192.3324 0001271  73.3442  60.4818 15.53834102  1307,6783.681,92.674,406.408,404.684,0.0
54784.0,STARLINK-5442,PAYLOAD,2023-01-10 14:00:01,15.52162832,0.0001311,53.214,189.1298,94.0038,169.1016,-0.022082,-0.01236028,0.0,0 STARLINK-5442,1 54784U 22175AC  23010.58334491 -.01236028  00000-0 -22082-1 0  9997,2 54784  53.2140 189.1298 0001311  94.0038 169.1016 15.52162832  3476,6788.549,92.774,411.304,409.525,0.0
54784.0,STARLINK-5442,PAYLOAD,2023-01-10 22:00:00,15.51258937,0.000115,53.2136,187.534,75.8333,250.3887,-0.021233,-0.01140572,0.0,0 STARLINK-5442,1 54784U 22175AC  23010.91667824 -.01140572  00000-0 -21233-1 0  9998,2 54784  53.2136 187.5340 0001150  75.8333 250.3887 15.51258937  1307,6791.186,92.828,413.832,412.27,0.0
54784.0,STARLINK-5442,PAYLOAD,2023-01-11 08:00:01,15.49962913,0.0001474,53.2135,185.5379,88.6861,44.9848,-0.0020593,-0.00115935,0.0,0 STARLINK-5442,1 54784U 22175AC  23011.33334491 -.00115935  00000-0 -20593-2 0  9999,2 54784  53.2135 185.5379 0001474  88.6861  44.9848 15.49962913  3582,6794.971,92.905,417.838,415.835,0.0
54784.0,STARLINK-5442,PAYLOAD,2023-01-11 14:00:01,15.49908816,0.0001557,53.2139,184.3436,88.5779,0.8114,-0.00053193,-0.0003055,0.0,0 STARLINK-5442,1 54784U 22175AC  23011.58334491 -.00030550  00000-0 -53193-3 0  9998,2 54784  53.2139 184.3436 0001557  88.5779   0.8114 15.49908816  1303,6795.13,92.909,418.05300000000005,415.937,0.0
54784.0,STARLINK-5442,PAYLOAD,2023-01-11 22:00:00,15.49855617,0.0001483,53.2144,182.7509,80.0402,70.2882,0.00096584,0.00054692,0.0,0 STARLINK-5442,1 54784U 22175AC  23011.91667824  .00054692  00000-0  96584-3 0  9996,2 54784  53.2144 182.7509 0001483  80.0402  70.2882 15.49855617  3675,6795.285,92.912,418.158,416.142,0.0
54784.0,STARLINK-5442,PAYLOAD,2023-01-12 22:00:00,15.49875615,0.0001296,53.2144,177.9729,76.2965,256.67400000000004,0.0013232,0.00075348,0.0,0 STARLINK-5442,1 54784U 22175AC  23012.91667824  .00075348  00000-0  13232-2 0  9996,2 54784  53.2144 177.9729 0001296  76.2965 256.6740 15.49875615  3839,6795.227,92.911,417.972,416.211,0.0
54784.0,STARLINK-5442,PAYLOAD,2023-01-13 14:00:01,15.49962372,0.0001296999999999,53.2146,174.7854,74.5787,20.2633,-0.0019724,-0.00111125,0.0,0 STARLINK-5442,1 54784U 22175AC  23013.58334491 -.00111125  00000-0 -19724-2 0  9999,2 54784  53.2146 174.7854 0001297  74.5787  20.2633 15.49962372  1302,6794.973000000001,92.905,417.719,415.957,0.0
54784.0,STARLINK-5442,PAYLOAD,2023-01-13 16:00:00,15.49974857,0.0001262999999999,53.2169,174.3826,92.421,107.6819,-0.0022236,-0.00125054,0.0,0 STARLINK-5442,1 54784U 22175AC  23013.66667824 -.00125054  00000-0 -22236-2 0  9995,2 54784  53.2169 174.3826 0001263  92.4210 107.6819 15.49974857  3944,6794.937,92.905,417.66,415.943,0.0
54784.0,STARLINK-5442,PAYLOAD,2023-01-13 22:00:00,15.498736,0.0001345,53.2141,173.1935,63.4022,92.4072,0.00041901,0.00023391,0.0,0 STARLINK-5442,1 54784U 22175AC  23013.91667824  .00023391  00000-0  41901-3 0  9993,2 54784  53.2141 173.1935 0001345  63.4022  92.4072 15.49873600  1306,6795.233,92.911,418.011,416.184,0.0
54784.0,STARLINK-5442,PAYLOAD,2023-01-14 10:00:00,15.4989281,0.000126,53.2142,170.8018,80.2891,346.8884,-0.00017957,-0.00010632,0.0,0 STARLINK-5442,1 54784U 22175AC  23014.41667824 -.00010632  00000-0 -17957-3 0  9999,2 54784  53.2142 170.8018 0001260  80.2891 346.8884 15.49892810  4067,6795.176,92.91,417.898,416.185,0.0
54784.0,STARLINK-5442,PAYLOAD,2023-01-15 14:00:01,15.49934126,0.000112,53.2138,165.227,74.7793,25.5997,-0.0016604,-0.0009373,0.0,0 STARLINK-5442,1 54784U 22175AC  23015.58334491 -.00093730  00000-0 -16604-2 0  9996,2 54784  53.2138 165.2270 0001120  74.7793  25.5997 15.49934126  4247,6795.056,92.907,417.682,416.16,0.0
54784.0,STARLINK-5442,PAYLOAD,2023-01-15 22:00:01,15.49849094,0.0001087,53.2138,163.6347,64.5308,96.8489,0.0009767999999999,0.00055309,0.0,0 STARLINK-5442,1 54784U 22175AC  23015.91668981  .00055309  00000-0  97680-3 0  9999,2 54784  53.2138 163.6347 0001087  64.5308  96.8489 15.49849094  1305,6795.304,92.912,417.908,416.43,0.0
54784.0,STARLINK-5442,PAYLOAD,2023-01-16 08:00:01,15.49842707,9.990000000000002e-05,53.214,161.6411,86.1521,241.2949,0.0013113,0.00074572,0.0,0 STARLINK-5442,1 54784U 22175AC  23016.33334491  .00074572  00000-0  13113-2 0  9993,2 54784  53.2140 161.6411 0000999  86.1521 241.2949 15.49842707  4366,6795.323,92.913,417.867,416.509,0.0
54784.0,STARLINK-5442,PAYLOAD,2023-01-16 14:00:01,15.49879239,0.0001044999999999,53.2141,160.4477,79.7563,203.329,0.0001694,9.172e-05,0.0,0 STARLINK-5442,1 54784U 22175AC  23016.58334491  .00009172  00000-0  16940-3 0  9996,2 54784  53.2141 160.4477 0001045  79.7563 203.3290 15.49879239  4406,6795.215999999999,92.91,417.791,416.371,0.0
54784.0,STARLINK-5442,PAYLOAD,2023-01-16 22:00:00,15.49904982,0.0001084,53.214,158.8553,65.3955,278.591,3.3319000000000004e-05,1.441e-05,0.0,0 STARLINK-5442,1 54784U 22175AC  23016.91667824  .00001441  00000-0  33319-4 0  9993,2 54784  53.2140 158.8553 0001084  65.3955 278.5910 15.49904982  1303,6795.141,92.909,417.742,416.269,0.0
54784.0,STARLINK-5442,PAYLOAD,2023-01-17 08:00:01,15.49609722,0.0001074,53.2179,156.8567,78.1636,72.0324,-0.0063012,-0.0033967,0.0,0 STARLINK-5442,1 54784U 22175AC  23017.33334491 -.00339670  00000-0 -63012-2 0  9992,2 54784  53.2179 156.8567 0001074  78.1636  72.0324 15.49609722  4511,6796.004,92.927,418.599,417.139,0.0
54784.0,STARLINK-5442,PAYLOAD,2023-01-17 10:00:00,15.4970536,0.0001205999999999,53.2146,156.4624,97.8445,157.5207,-0.0239169999999999,-0.0122657,0.0,0 STARLINK-5442,1 54784U 22175AC  23017.41667824 -.01226570  00000-0 -23917-1 0  9994,2 54784  53.2146 156.4624 0001206  97.8445 157.5207 15.49705360  1306,6795.724,92.921,418.409,416.77,0.0
54784.0,STARLINK-5442,PAYLOAD,2023-01-17 16:00:00,15.49021797,0.0001301,53.2138,155.2716,72.2822,138.3048,-0.023445,-0.01178132,0.0,0 STARLINK-5442,1 54784U 22175AC  23017.66667824 -.01178132  00000-0 -23445-1 0  9997,2 54784  53.2138 155.2716 0001301  72.2822 138.3048 15.49021797  4564,6797.723000000001,92.962,420.473,418.704,0.0
54784.0,STARLINK-5442,PAYLOAD,2023-01-17 22:00:00,15.48419356,0.0001291999999999,53.2134,154.0788,70.0561,95.1406,-0.025115,-0.01230329,0.0,0 STARLINK-5442,1 54784U 22175AC  23017.91667824 -.01230329  00000-0 -25115-1 0  9998,2 54784  53.2134 154.0788 0001292  70.0561  95.1406 15.48419356  1309,6799.486,92.998,422.23,420.473,0.0
54784.0,STARLINK-5442,PAYLOAD,2023-01-18 12:00:00,15.46913271,0.0001284999999999,53.2137,151.2993,79.2158,97.8692,-0.0265529999999999,-0.01233553,0.0,0 STARLINK-5442,1 54784U 22175AC  23018.50001157 -.01233553  00000-0 -26553-1 0  9994,2 54784  53.2137 151.2993 0001285  79.2158  97.8692 15.46913271  4698,6803.899,93.089,426.638,424.89,0.0
